{
  "norad_id": 62796,
  "name": "QIANFAN-66",
  "history": [
    {
      "epoch": "2026-03-28T23:12:08.301600",
      "apogee_km": 1080.743691051025,
      "perigee_km": 1056.4338547653679,
      "latitude_deg": -81.66068836039511,
      "longitude_deg": -167.59077599993907,
      "semi_major_axis_km": 7446.725772908197,
      "eccentricity": 0.00163225,
      "inclination_deg": 88.9681,
      "raan_deg": 92.0252,
      "arg_perigee_deg": 38.631,
      "mean_anomaly_deg": 321.6005,
      "mean_motion_rev_day": 13.50998044
    },
    {
      "epoch": "2026-03-29T02:45:26.436384",
      "apogee_km": 1080.7359860898268,
      "perigee_km": 1056.4417875566542,
      "latitude_deg": 42.08688075674639,
      "longitude_deg": -153.37062624003738,
      "semi_major_axis_km": 7446.72588682324,
      "eccentricity": 0.0016312,
      "inclination_deg": 88.9681,
      "raan_deg": 92.0098,
      "arg_perigee_deg": 38.2781,
      "mean_anomaly_deg": 321.9525,
      "mean_motion_rev_day": 13.50998013
    }
  ]
}